STARLINK-3826           
1 52347U 22045S   23316.97888886  .00009891  00000+0  63840-3 0  9991
2 52347  53.2175  44.6570 0001353  78.8336 281.2808 15.08855919 87802
STARLINK-3829           
1 52348U 22045T   23316.95953008  .00000036  00000+0  20380-4 0  9994
2 52348  53.2187  44.7316 0001397  87.1480 272.9672 15.08842624 87801
STARLINK-3819           
1 52349U 22045U   23316.63937278  .00001873  00000+0  13575-3 0  9998
2 52349  53.2187  46.1655 0001869  90.8780 269.2426 15.08842066 87752
STARLINK-3754           
1 52350U 22045V   23316.55841025  .00003657  00000+0  24771-3 0  9997
2 52350  53.2175  46.5323 0001455  91.4921 268.6237 15.08848083 87749
STARLINK-3838           
1 52352U 22045X   23316.67984378  .00000837  00000+0  70629-4 0  9992
2 52352  53.2185  45.9845 0001285  91.3524 268.7615 15.08848763 87761
STARLINK-3807           
1 52353U 22045Y   23316.68721273  .00000842  00000+0  70989-4 0  9992
2 52353  53.2189  45.9532 0001531  84.3831 275.7335 15.08842195 87766
STARLINK-3876           
1 52354U 22045Z   23316.66880786  .00001926  00000+0  13902-3 0  9991
2 52354  53.2184  46.0374 0001388  94.2829 265.8321 15.08846084 87761
STARLINK-3877           
1 52355U 22045AA  23316.55104825  .00001359  00000+0  10343-3 0  9999
2 52355  53.2184  46.5644 0001315  87.6771 272.4372 15.08844569 87743
STARLINK-3801           
1 52356U 22045AB  23316.67250802 -.00005171  00000+0 -30724-3 0  9993
2 52356  53.2175  46.0454 0001343  82.8263 277.2882 15.08816859 87764
STARLINK-3821           
1 52357U 22045AC  23316.67617053  .00002465  00000+0  17286-3 0  9998
2 52357  53.2167  46.0005 0001509  86.3363 273.7801 15.08845848 87764
STARLINK-3837           
1 52358U 22045AD  23316.52529270  .00000488  00000+0  48735-4 0  9993
2 52358  53.2186  46.6788 0001575  85.1329 274.9843 15.08844426 87740
STARLINK-3853           
1 52359U 22045AE  23316.54098969  .00007931  00000+0  51584-3 0  9997
2 52359  53.2186  46.6184 0001512  93.1400 266.9765 15.08839152 87745
STARLINK-3824           
1 52360U 22045AF  23316.51885076  .00000858  00000+0  71986-4 0  9999
2 52360  53.2175  36.7079 0001481  86.7983 273.3179 15.08842150 87863
STARLINK-3728           
1 52361U 22045AG  23316.53264732  .00000868  00000+0  72596-4 0  9991
2 52361  53.2180  46.6466 0001461  93.6322 266.4837 15.08849888 87748
STARLINK-3848           
1 52362U 22045AH  23316.91260897  .00000422  00000+0  44596-4 0  9997
2 52362  53.2183  34.9404 0001591  95.4338 264.6836 15.08843485 87932
STARLINK-3830           
1 52363U 22045AJ  23316.52897170  .00000575  00000+0  54187-4 0  9991
2 52363  53.2176  46.6623 0001582  88.9519 271.1654 15.08841502 87744
STARLINK-3820           
1 52364U 22045AK  23316.50044250 -.00000315  00000+0 -16644-5 0  9994
2 52364  53.2183  36.7023 0001596  93.2898 266.8277 15.08840988 87874
STARLINK-3874           
1 52365U 22045AL  23316.52253048  .00000636  00000+0  58050-4 0  9994
2 52365  53.2187  36.6930 0001684  92.6604 267.4581 15.08840861 87876
STARLINK-3808           
1 52366U 22045AM  23316.50413381  .00002659  00000+0  18510-3 0  9994
2 52366  53.2194  36.7779 0001695  86.9957 273.1229 15.08841767 87875
STARLINK-3817           
1 52367U 22045AN  23316.51149393  .00001365  00000+0  10384-3 0  9999
2 52367  53.2183  36.7445 0001327  86.2704 273.8439 15.08837984 87875
STARLINK-3834           
1 52368U 22045AP  23316.95676898  .00001691  00000+0  12427-3 0  9995
2 52368  53.2186  34.7458 0001441  89.1602 270.9555 15.08847161 87939
STARLINK-3841           
1 52369U 22045AQ  23316.64029020  .00001095  00000+0  86889-4 0  9993
2 52369  53.2189  36.1649 0001831  90.5423 269.5779 15.08846513 87898
STARLINK-3827           
1 52370U 22045AR  23316.50140860  .00001819  00000+0  13231-3 0  9990
2 52370  53.2180  36.7969 0001191  85.3493 274.7635 15.08845370 87877
STARLINK-3798           
1 52371U 22045AS  23316.96140899  .00000897  00000+0  74460-4 0  9990
2 52371  53.2208  34.7329 0001710  95.9307 264.1880 15.08843405 87934
STARLINK-3796           
1 52372U 22045AT  23316.55565244  .00002720  00000+0  18887-3 0  9998
2 52372  53.2183  36.5446 0001481  80.5522 279.5638 15.08844950 87871
STARLINK-3550           
1 52373U 22045AU  23316.94204854 -.00000230  00000+0  36268-5 0  9999
2 52373  53.2192  34.8083 0001489  82.1818 277.9343 15.08846409 87948
STARLINK-3762           
1 52374U 22045AV  23316.54829873  .00003398  00000+0  23154-3 0  9995
2 52374  53.2203  36.5748 0002076  67.8956 292.2256 15.08834825 87880
STARLINK-3785           
1 52375U 22045AW  23316.55197153  .00000901  00000+0  74709-4 0  9996
2 52375  53.2184  36.5602 0001562  89.4813 270.6359 15.08842342 87886
STARLINK-3767           
1 52376U 22045AX  23316.54093072  .00000334  00000+0  39090-4 0  9995
2 52376  53.2173  36.6098 0001313  86.4094 273.7048 15.08844091 87889
STARLINK-3805           
1 52377U 22045AY  23316.96047895  .00004504  00000+0  30080-3 0  9996
2 52377  53.2185  34.9473 0001621  87.8561 272.2617 15.08849439 87930
STARLINK-3806           
1 52378U 22045AZ  23316.93101136  .00001066  00000+0  85074-4 0  9997
2 52378  53.2181  34.8599 0001303  81.5736 278.5404 15.08842585 87946
STARLINK-3800           
1 52379U 22045BA  23316.93469445 -.00000890  00000+0 -37817-4 0  9996
2 52379  53.2190  34.8390 0001735  83.9625 276.1565 15.08839912 87940
STARLINK-3793           
1 52380U 22045BB  23317.17847828  .00004361  00000+0  29174-3 0  9991
2 52380  53.2197  23.7783 0001527  97.8829 262.2336 15.08859785 88113
STARLINK-3803           
1 52381U 22045BC  23316.92732811  .00001291  00000+0  99206-4 0  9992
2 52381  53.2189  34.8757 0001536  96.9529 263.1637 15.08845330 87941
STARLINK-3799           
1 52382U 22045BD  23316.92365484 -.00000247  00000+0  25680-5 0  9998
2 52382  53.2200  34.9057 0001801  99.1466 260.9730 15.08843025 87948
STARLINK-3811           
1 52383U 22045BE  23316.48297258  .00003175  00000+0  21743-3 0  9999
2 52383  53.2182  26.8996 0001357  80.6485 279.4660 15.08848859 88018
JILIN-1 GAOFEN 4A       
1 52388U 22046A   23317.18411455  .00013157  00000+0  72262-3 0  9993
2 52388  97.5185  41.2003 0019660 140.1740 220.0939 15.14079824 84853
JILIN-1 GAOFEN 3D04     
1 52389U 22046B   23317.12460613  .00013492  00000+0  69394-3 0  9992
2 52389  97.5197  42.8207 0006946 162.6881 197.4590 15.16548520 84944
JILIN-1 GAOFEN 3D05     
1 52390U 22046C   23317.17285753  .00012141  00000+0  62684-3 0  9994
2 52390  97.5125  42.4025 0001205 297.4396  62.6714 15.16460196 84956
JILIN-1 GAOFEN 3D06     
1 52391U 22046D   23317.18280931  .00012548  00000+0  64572-3 0  9998
2 52391  97.5265  43.4892 0002374 134.7670 225.3757 15.16567029 84960
JILIN-1 GAOFEN 3D07     
1 52392U 22046E   23317.16486170  .00011878  00000+0  61163-3 0  9998
2 52392  97.5189  42.9935 0001797 249.4107 110.6933 15.16558276 84961
SPACEBEE-143            
1 52394U 22047A   23316.75054327  .00068518  00000+0  17426-2 0  9995
2 52394  97.4118  40.6877 0005389 180.7000 179.4239 15.39344808 86439
SPACEBEENZ-15           
1 52395U 22047B   23317.15711726  .00213671  00000+0  24291-2 0  9994
2 52395  97.4056  44.7856 0003887 220.3373 139.7597 15.61598728 86745
SPACEBEENZ-16           
1 52396U 22047C   23317.17884297  .00207086  00000+0  23976-2 0  9993
2 52396  97.4046  44.7503 0003859 216.5727 143.5268 15.61143920 86741
SPACEBEENZ-17           
1 52397U 22047D   23316.93508066  .00188684  00000+0  23078-2 0  9999
2 52397  97.4035  44.3119 0003729 219.6940 140.4044 15.59761796 86692
SPACEBEENZ-18           
1 52398U 22047E   23317.05351200  .00192044  00000+0  23165-2 0  9992
2 52398  97.4045  44.4540 0003788 222.7249 137.3713 15.60117112 86715
SPACEBEE-140            
1 52399U 22047F   23316.78927796  .00104069  00000+0  20987-2 0  9990
2 52399  97.4105  42.1404 0004581 187.4701 172.6481 15.46147983 86558
SPACEBEE-141            
1 52400U 22047G   23317.15444492  .00058713  00000+0  14827-2 0  9992
2 52400  97.4118  41.2200 0005552 177.0169 183.1111 15.39605484 86500
SPACEBEE-142            
1 52401U 22047H   23317.14203135  .00056573  00000+0  14720-2 0  9993
2 52401  97.4104  40.8883 0005332 180.3353 179.7890 15.38699618 86489
SPACEBEENZ-20           
1 52402U 22047J   23317.17710442  .00193099  00000+0  24101-2 0  9990
2 52402  97.4041  44.3889 0004205 211.4040 148.6965 15.59208808 86727
SPACEBEENZ-22           
1 52403U 22047K   23316.95083978  .00138488  00000+0  20939-2 0  9999
2 52403  97.4046  43.4912 0004306 193.3608 166.7532 15.54205357 86643
SPACEBEENZ-19           
1 52404U 22047L   23317.17711732  .00198123  00000+0  23687-2 0  9996
2 52404  97.4051  44.5726 0003727 213.5902 146.5119 15.60331039 86734
SPACEBEENZ-21           
1 52405U 22047M   23316.74485087  .00196414  00000+0  26074-2 0  9994
2 52405  97.4050  43.7667 0004549 210.5633 149.5358 15.57547790 86647
SPACEBEE-148            
1 52406U 22047N   23317.17443278  .00086312  00000+0  17749-2 0  9993
2 52406  97.4098  42.3426 0005126 185.7655 174.3535 15.45645188 86580
SPACEBEE-149            
1 52407U 22047P   23316.79524309  .00073621  00000+0  18066-2 0  9998
2 52407  97.4104  40.8605 0005632 182.7255 177.3962 15.40412916 86455
SPACEBEE-153            
1 52408U 22047Q   23317.16928466  .00064729  00000+0  15315-2 0  9996
2 52408  97.4141  41.8266 0005775 191.1917 168.9202 15.41557381 86537
SPACEBEE-150            
1 52409U 22047R   23316.76512444  .00068288  00000+0  17467-2 0  9991
2 52409  97.4110  40.6240 0005752 182.9412 177.1801 15.39168603 86434
SPACEBEE-144            
1 52410U 22047S   23316.78850004  .00068170  00000+0  17610-2 0  9992
2 52410  97.4117  40.6375 0005351 182.5061 177.6158 15.38867714 86431
SPACEBEE-145            
1 52411U 22047T   23316.78590671  .00068711  00000+0  17650-2 0  9999
2 52411  97.4111  40.6215 0005314 181.9652 178.1573 15.39038400 86437
